IRIDIUM 63              
1 25286U 98021B   25211.57455208  .00000320  00000+0  10240-3 0  9994
2 25286  86.3940  63.9219 0002251  91.5337 268.6118 14.36570480430077
IRIDIUM 69              
1 25319U 98026A   25211.59290397  .00000429  00000+0  12743-3 0  9994
2 25319  86.3936  77.0752 0001026 174.5515 185.5696 14.41001212429317
IRIDIUM 71              
1 25320U 98026B   25211.59409419  .00000350  00000+0  10235-3 0  9990
2 25320  86.3933  71.7568 0001297  16.5662 343.5580 14.41185901429844
IRIDIUM 73              
1 25344U 98032C   25211.55511394  .00000568  00000+0  13625-3 0  9992
2 25344  86.4404  28.3877 0002020 107.6262 252.5164 14.51752486436853
IRIDIUM 82              
1 25467U 98051A   25211.69562944  .00026360  00000+0  71350-3 0  9998
2 25467  86.3631  88.3155 0084260 129.8112 231.0596 15.33931669430624
